start=new Date('2022-10-20T00:00:00.000Z').valueOf();
sats=[{"BSTAR":"0.00004807600000","GP_ID":"215621374","NORAD_CAT_ID":"47906","CLASSIFICATION_TYPE":"U","COUNTRY_CODE":"US","ARG_OF_PERICENTER":"182.5759","TLE_LINE1":"1 47906U 21021AY  22292.88322836  .00007221  00000-0  48076-4 0  9990","MEAN_ELEMENT_THEORY":"SGP4","RA_OF_ASC_NODE":"191.5310","SITE":"AFETR","RCS_SIZE":"LARGE","EPOCH":"2022-10-19T21:11:50.930304","EPHEMERIS_TYPE":"0","ECCENTRICITY":"0.00021870","REV_AT_EPOCH":"9312","DECAY_DATE":null,"SEMIMAJOR_AXIS":"6717.844","INCLINATION":"53.0232","PERIAPSIS":"338.240","PERIOD":"91.328","TLE_LINE2":"2 47906  53.0232 191.5310 0002187 182.5759 177.5249 15.76732049 93122","MEAN_MOTION_DDOT":"0.0000000000000","MEAN_MOTION_DOT":"0.00007221","OBJECT_ID":"2021-021AY","APOAPSIS":"341.178","OBJECT_NAME":"STARLINK-2366","MEAN_ANOMALY":"177.5249","MEAN_MOTION":"15.76732049","TIME_SYSTEM":"UTC","REF_FRAME":"TEME","OBJECT_TYPE":"PAYLOAD","FILE":"3623738","CENTER_NAME":"EARTH","ELEMENT_SET_NO":"999","LAUNCH_DATE":"2021-03-14"},{"BSTAR":"0.00006377100000","GP_ID":"215621121","ARG_OF_PERICENTER":"80.8274","COUNTRY_CODE":"US","NORAD_CAT_ID":"47907","CLASSIFICATION_TYPE":"U","TLE_LINE1":"1 47907U 21021AZ  22292.65995410  .00000669  00000-0  63771-4 0  9998","MEAN_ELEMENT_THEORY":"SGP4","RA_OF_ASC_NODE":"74.8665","RCS_SIZE":"LARGE","SITE":"AFETR","EPHEMERIS_TYPE":"0","ECCENTRICITY":"0.00012450","EPOCH":"2022-10-19T15:50:20.034240","DECAY_DATE":null,"SEMIMAJOR_AXIS":"6925.360","REV_AT_EPOCH":"8956","INCLINATION":"53.0543","PERIAPSIS":"546.363","PERIOD":"95.592","TLE_LINE2":"2 47907  53.0543  74.8665 0001245  80.8274 279.2856 15.06396139 89566","MEAN_MOTION_DDOT":"0.0000000000000","MEAN_MOTION_DOT":"0.00000669","OBJECT_ID":"2021-021AZ","APOAPSIS":"548.088","MEAN_ANOMALY":"279.2856","OBJECT_NAME":"STARLINK-2367","MEAN_MOTION":"15.06396139","TIME_SYSTEM":"UTC","FILE":"3623738","REF_FRAME":"TEME","OBJECT_TYPE":"PAYLOAD","CENTER_NAME":"EARTH","ELEMENT_SET_NO":"999","LAUNCH_DATE":"2021-03-14"},{"INCLINATION":"53.0551","REV_AT_EPOCH":"8959","DECAY_DATE":null,"SEMIMAJOR_AXIS":"6925.333","EPOCH":"2022-10-19T16:00:56.439360","EPHEMERIS_TYPE":"0","ECCENTRICITY":"0.00013950","RA_OF_ASC_NODE":"74.8344","MEAN_ELEMENT_THEORY":"SGP4","TLE_LINE1":"1 47908U 21021BA  22292.66731990  .00002610  00000-0  19399-3 0  9995","SITE":"AFETR","RCS_SIZE":"LARGE","GP_ID":"215620373","BSTAR":"0.00019399000000","CLASSIFICATION_TYPE":"U","NORAD_CAT_ID":"47908","COUNTRY_CODE":"US","ARG_OF_PERICENTER":"83.9849","CENTER_NAME":"EARTH","REF_FRAME":"TEME","OBJECT_TYPE":"PAYLOAD","FILE":"3623738","LAUNCH_DATE":"2021-03-14","ELEMENT_SET_NO":"999","TIME_SYSTEM":"UTC","MEAN_MOTION":"15.06404928","MEAN_MOTION_DOT":"0.00002610","OBJECT_NAME":"STARLINK-2368","MEAN_ANOMALY":"276.1299","APOAPSIS":"548.165","OBJECT_ID":"2021-021BA","TLE_LINE2":"2 47908  53.0551  74.8344 0001395  83.9849 276.1299 15.06404928 89594","PERIOD":"95.592","PERIAPSIS":"546.232","MEAN_MOTION_DDOT":"0.0000000000000"},{"RCS_SIZE":"LARGE","SITE":"AFETR","MEAN_ELEMENT_THEORY":"SGP4","RA_OF_ASC_NODE":"67.4448","TLE_LINE1":"1 47909U 21021BB  22292.08586692  .00000894  00000-0  78925-4 0  9992","COUNTRY_CODE":"US","ARG_OF_PERICENTER":"84.7002","NORAD_CAT_ID":"47909","CLASSIFICATION_TYPE":"U","BSTAR":"0.00007892500000","GP_ID":"215580089","INCLINATION":"53.0558","SEMIMAJOR_AXIS":"6925.370","DECAY_DATE":null,"REV_AT_EPOCH":"8981","ECCENTRICITY":"0.00014450","EPHEMERIS_TYPE":"0","EPOCH":"2022-10-19T02:03:38.901888","MEAN_ANOMALY":"275.4152","OBJECT_NAME":"STARLINK-2369","APOAPSIS":"548.236","OBJECT_ID":"2021-021BB","MEAN_MOTION_DOT":"0.00000894","MEAN_MOTION_DDOT":"0.0000000000000","TLE_LINE2":"2 47909  53.0558  67.4448 0001445  84.7002 275.4152 15.06392946 89812","PERIAPSIS":"546.234","PERIOD":"95.593","LAUNCH_DATE":"2021-03-14","ELEMENT_SET_NO":"999","CENTER_NAME":"EARTH","FILE":"3623062","OBJECT_TYPE":"PAYLOAD","REF_FRAME":"TEME","TIME_SYSTEM":"UTC","MEAN_MOTION":"15.06392946"},{"RCS_SIZE":"LARGE","SITE":"AFETR","TLE_LINE1":"1 47910U 21021BC  22292.65255328 -.00002181  00000-0 -12759-3 0  9991","MEAN_ELEMENT_THEORY":"SGP4","RA_OF_ASC_NODE":"64.9078","COUNTRY_CODE":"US","ARG_OF_PERICENTER":"73.5453","CLASSIFICATION_TYPE":"U","NORAD_CAT_ID":"47910","BSTAR":"-0.00012759000000","GP_ID":"215620875","SEMIMAJOR_AXIS":"6925.344","DECAY_DATE":null,"REV_AT_EPOCH":"8975","INCLINATION":"53.0552","EPHEMERIS_TYPE":"0","ECCENTRICITY":"0.00014560","EPOCH":"2022-10-19T15:39:40.603392","APOAPSIS":"548.218","OBJECT_ID":"2021-021BC","MEAN_ANOMALY":"286.5696","OBJECT_NAME":"STARLINK-2370","MEAN_MOTION_DOT":"-0.00002181","MEAN_MOTION_DDOT":"0.0000000000000","PERIAPSIS":"546.201","PERIOD":"95.592","TLE_LINE2":"2 47910  53.0552  64.9078 0001456  73.5453 286.5696 15.06401361 89758","ELEMENT_SET_NO":"999","LAUNCH_DATE":"2021-03-14","FILE":"3623738","REF_FRAME":"TEME","OBJECT_TYPE":"PAYLOAD","CENTER_NAME":"EARTH","MEAN_MOTION":"15.06401361","TIME_SYSTEM":"UTC"},{"FILE":"3623738","OBJECT_TYPE":"PAYLOAD","REF_FRAME":"TEME","CENTER_NAME":"EARTH","ELEMENT_SET_NO":"999","LAUNCH_DATE":"2021-03-14","MEAN_MOTION":"15.06397862","TIME_SYSTEM":"UTC","MEAN_MOTION_DOT":"0.00001176","OBJECT_ID":"2021-021BD","APOAPSIS":"548.278","MEAN_ANOMALY":"254.3420","OBJECT_NAME":"STARLINK-2371","PERIAPSIS":"546.163","PERIOD":"95.592","TLE_LINE2":"2 47911  53.0550  80.6625 0001527 105.7737 254.3420 15.06397862 89356","MEAN_MOTION_DDOT":"0.0000000000000","DECAY_DATE":null,"SEMIMAJOR_AXIS":"6925.355","REV_AT_EPOCH":"8935","INCLINATION":"53.0550","ECCENTRICITY":"0.00015270","EPHEMERIS_TYPE":"0","EPOCH":"2022-10-19T12:51:53.931168","TLE_LINE1":"1 47911U 21021BD  22292.53604087  .00001176  00000-0  97836-4 0  9990","RA_OF_ASC_NODE":"80.6625","MEAN_ELEMENT_THEORY":"SGP4","RCS_SIZE":"LARGE","SITE":"AFETR","BSTAR":"0.00009783600000","GP_ID":"215621621","ARG_OF_PERICENTER":"105.7737","COUNTRY_CODE":"US","CLASSIFICATION_TYPE":"U","NORAD_CAT_ID":"47911"},{"GP_ID":"215619874","BSTAR":"-0.00003262500000","CLASSIFICATION_TYPE":"U","NORAD_CAT_ID":"47912","COUNTRY_CODE":"US","ARG_OF_PERICENTER":"80.3993","TLE_LINE1":"1 47912U 21021BE  22292.84422504 -.00000767  00000-0 -32625-4 0  9999","MEAN_ELEMENT_THEORY":"SGP4","RA_OF_ASC_NODE":"64.0298","SITE":"AFETR","RCS_SIZE":"LARGE","EPOCH":"2022-10-19T20:15:41.043456","ECCENTRICITY":"0.00015840","EPHEMERIS_TYPE":"0","REV_AT_EPOCH":"8961","DECAY_DATE":null,"SEMIMAJOR_AXIS":"6925.369","INCLINATION":"53.0545","PERIAPSIS":"546.137","PERIOD":"95.593","TLE_LINE2":"2 47912  53.0545  64.0298 0001584  80.3993 279.7175 15.06393485 89612","MEAN_MOTION_DDOT":"0.0000000000000","MEAN_MOTION_DOT":"-0.00000767","APOAPSIS":"548.331","OBJECT_ID":"2021-021BE","OBJECT_NAME":"STARLINK-2372","MEAN_ANOMALY":"279.7175","MEAN_MOTION":"15.06393485","TIME_SYSTEM":"UTC","OBJECT_TYPE":"PAYLOAD","REF_FRAME":"TEME","FILE":"3623738","CENTER_NAME":"EARTH","ELEMENT_SET_NO":"999","LAUNCH_DATE":"2021-03-14"},{"LAUNCH_DATE":"2021-03-14","ELEMENT_SET_NO":"999","CENTER_NAME":"EARTH","REF_FRAME":"TEME","OBJECT_TYPE":"PAYLOAD","FILE":"3623738","TIME_SYSTEM":"UTC","MEAN_MOTION":"15.06393775","OBJECT_NAME":"STARLINK-2374","MEAN_ANOMALY":"274.9777","APOAPSIS":"548.296","OBJECT_ID":"2021-021BF","MEAN_MOTION_DOT":"0.00000733","MEAN_MOTION_DDOT":"0.0000000000000","TLE_LINE2":"2 47913  53.0544  74.4791 0001536  85.1387 274.9777 15.06393775 89631","PERIAPSIS":"546.169","PERIOD":"95.593","INCLINATION":"53.0544","REV_AT_EPOCH":"8963","DECAY_DATE":null,"SEMIMAJOR_AXIS":"6925.368","EPOCH":"2022-10-19T20:26:25.221984","ECCENTRICITY":"0.00015360","EPHEMERIS_TYPE":"0","SITE":"AFETR","RCS_SIZE":"LARGE","MEAN_ELEMENT_THEORY":"SGP4","RA_OF_ASC_NODE":"74.4791","TLE_LINE1":"1 47913U 21021BF  22292.85168081  .00000733  00000-0  68092-4 0  9996","CLASSIFICATION_TYPE":"U","NORAD_CAT_ID":"47913","COUNTRY_CODE":"US","ARG_OF_PERICENTER":"85.1387","GP_ID":"215620124","BSTAR":"0.00006809200000"},{"OBJECT_NAME":"STARLINK-2375","MEAN_ANOMALY":"260.2103","APOAPSIS":"548.139","OBJECT_ID":"2021-021BG","MEAN_MOTION_DOT":"0.00001679","MEAN_MOTION_DDOT":"0.0000000000000","TLE_LINE2":"2 47914  53.0547  74.8174 0001340  99.9037 260.2103 15.06400692 89607","PERIAPSIS":"546.283","PERIOD":"95.592","LAUNCH_DATE":"2021-03-14","ELEMENT_SET_NO":"999","CENTER_NAME":"EARTH","OBJECT_TYPE":"PAYLOAD","REF_FRAME":"TEME","FILE":"3623738","TIME_SYSTEM":"UTC","MEAN_MOTION":"15.06400692","SITE":"AFETR","RCS_SIZE":"LARGE","MEAN_ELEMENT_THEORY":"SGP4","RA_OF_ASC_NODE":"74.8174","TLE_LINE1":"1 47914U 21021BG  22292.67100256  .00001679  00000-0  13155-3 0  9996","CLASSIFICATION_TYPE":"U","NORAD_CAT_ID":"47914","COUNTRY_CODE":"US","ARG_OF_PERICENTER":"99.9037","GP_ID":"215621375","BSTAR":"0.00013155000000","INCLINATION":"53.0547","REV_AT_EPOCH":"8960","SEMIMAJOR_AXIS":"6925.346","DECAY_DATE":null,"EPOCH":"2022-10-19T16:06:14.621184","EPHEMERIS_TYPE":"0","ECCENTRICITY":"0.00013400"},{"ECCENTRICITY":"0.00008610","EPHEMERIS_TYPE":"0","EPOCH":"2022-10-19T09:42:06.307488","DECAY_DATE":null,"SEMIMAJOR_AXIS":"6925.354","REV_AT_EPOCH":"8964","INCLINATION":"53.0568","ARG_OF_PERICENTER":"110.4349","COUNTRY_CODE":"US","NORAD_CAT_ID":"47915","CLASSIFICATION_TYPE":"U","BSTAR":"0.00017249000000","GP_ID":"215579588","RCS_SIZE":"LARGE","SITE":"AFETR","TLE_LINE1":"1 47915U 21021BH  22292.40423967  .00002289  00000-0  17249-3 0  9991","MEAN_ELEMENT_THEORY":"SGP4","RA_OF_ASC_NODE":"71.0002","MEAN_MOTION":"15.06398310","TIME_SYSTEM":"UTC","ELEMENT_SET_NO":"999","LAUNCH_DATE":"2021-03-14","FILE":"3623062","REF_FRAME":"TEME","OBJECT_TYPE":"PAYLOAD","CENTER_NAME":"EARTH","MEAN_MOTION_DDOT":"0.0000000000000","PERIOD":"95.592","PERIAPSIS":"546.622","TLE_LINE2":"2 47915  53.0568  71.0002 0000861 110.4349 249.6733 15.06398310 89649","OBJECT_ID":"2021-021BH","APOAPSIS":"547.815","MEAN_ANOMALY":"249.6733","OBJECT_NAME":"STARLINK-2376","MEAN_MOTION_DOT":"0.00002289"}];
